{
    "links": {
        "self": "http://www.neowsapp.com/rest/v1/neo/3892706?api_key=iIulBulltgU6a56xZRHN4H3l9WmuAYTsLGpBGhQ2"
    },
    "id": "3892706",
    "neo_reference_id": "3892706",
    "name": "(2019 VX3)",
    "designation": "2019 VX3",
    "nasa_jpl_url": "http://ssd.jpl.nasa.gov/sbdb.cgi?sstr=3892706",
    "absolute_magnitude_h": 26.7,
    "estimated_diameter": {
        "kilometers": {
            "estimated_diameter_min": 0.0121494041,
            "estimated_diameter_max": 0.0271668934
        },
        "meters": {
            "estimated_diameter_min": 12.14940408,
            "estimated_diameter_max": 27.1668934089
        },
        "miles": {
            "estimated_diameter_min": 0.0075492874,
            "estimated_diameter_max": 0.0168807197
        },
        "feet": {
            "estimated_diameter_min": 39.8602508817,
            "estimated_diameter_max": 89.1302305717
        }
    },
    "is_potentially_hazardous_asteroid": false,
    "close_approach_data": [
        {
            "close_approach_date": "1973-03-07",
            "close_approach_date_full": "1973-Mar-07 02:28",
            "epoch_date_close_approach": 100319280000,
            "relative_velocity": {
                "kilometers_per_second": "3.2109973186",
                "kilometers_per_hour": "11559.5903469474",
                "miles_per_hour": "7182.6799019685"
            },
            "miss_distance": {
                "astronomical": "1.9431467555",
                "lunar": "755.8840878895",
                "kilometers": "290690615.720210785",
                "miles": "180626772.833787433"
            },
            "orbiting_body": "Juptr"
        },
        {
            "close_approach_date": "2019-11-10",
            "close_approach_date_full": "2019-Nov-10 18:43",
            "epoch_date_close_approach": 1573411380000,
            "relative_velocity": {
                "kilometers_per_second": "16.2130379239",
                "kilometers_per_hour": "58366.9365261433",
                "miles_per_hour": "36266.9445320361"
            },
            "miss_distance": {
                "astronomical": "0.0094122583",
                "lunar": "3.6613684787",
                "kilometers": "1408053.793569821",
                "miles": "874924.0565566898"
            },
            "orbiting_body": "Moon"
        },
        {
            "close_approach_date": "2019-11-11",
            "close_approach_date_full": "2019-Nov-11 02:03",
            "epoch_date_close_approach": 1573437780000,
            "relative_velocity": {
                "kilometers_per_second": "16.039183175",
                "kilometers_per_hour": "57741.0594298679",
                "miles_per_hour": "35878.0488440754"
            },
            "miss_distance": {
                "astronomical": "0.0103313962",
                "lunar": "4.0189131218",
                "kilometers": "1545554.865646094",
                "miles": "960363.2608763372"
            },
            "orbiting_body": "Earth"
        }
    ],
    "orbital_data": {
        "orbit_id": "1",
        "orbit_determination_date": "2019-11-06 16:42:04",
        "first_observation_date": "2019-11-04",
        "last_observation_date": "2019-11-06",
        "data_arc_in_days": 2,
        "observations_used": 11,
        "orbit_uncertainty": "8",
        "minimum_orbit_intersection": ".00833263",
        "jupiter_tisserand_invariant": "3.555",
        "epoch_osculation": "2458792.5",
        "eccentricity": ".6291318948459781",
        "semi_major_axis": "2.004572151663092",
        "inclination": "6.463148937355377",
        "ascending_node_longitude": "223.4645327427917",
        "orbital_period": "1036.647168683385",
        "perihelion_distance": ".7434318755318117",
        "perihelion_argument": "253.6487400016309",
        "aphelion_distance": "3.265712427794373",
        "perihelion_time": "2458841.974132254390",
        "mean_anomaly": "342.818949253292",
        "mean_motion": ".3472734126667471",
        "equinox": "J2000",
        "orbit_class": {
            "orbit_class_type": "APO",
            "orbit_class_description": "Near-Earth asteroid orbits which cross the Earth’s orbit similar to that of 1862 Apollo",
            "orbit_class_range": "a (semi-major axis) > 1.0 AU; q (perihelion) < 1.017 AU"
        }
    },
    "is_sentry_object": false
}